AMOS-17                 
1 44479U 19050A   26103.17961551  .00000000  00000+0  00000+0 0  9998
2 44479   0.0097 220.0706 0001382 167.6925 255.2667  1.00268442 24537
AEHF-5 (USA 292)        
1 44481U 19051A   26103.03642028 -.00000256  00000+0  00000+0 0  9996
2 44481   1.5192 331.3599 0070183   3.0613 332.9513  1.00268191 24602
EUTELSAT 5 WEST B       
1 44624U 19067A   26103.20322625 -.00000039  00000+0  00000+0 0  9998
2 44624   0.0711  25.0148 0003362   5.5442 239.0009  1.00271717 23784
TJS-4                   
1 44637U 19070A   26103.03460028 -.00000168  00000+0  00000+0 0  9990
2 44637   0.0511  50.8704 0002622   9.9858 236.3954  1.00272377 23880
BEIDOU-3 IGSO-3         
1 44709U 19073A   26102.89648179 -.00000161  00000+0  00000+0 0  9994
2 44709  54.9146 281.5997 0041696 188.5705 171.3157  1.00256882 23806
TIBA-1                  
1 44800U 19080A   26102.81117409  .00000158  00000+0  00000+0 0  9998
2 44800   0.0596 348.3169 0001664  41.3009 138.9255  1.00274078 23407
INMARSAT GX5            
1 44801U 19080B   26103.17961551  .00000000  00000+0  00000+0 0  9990
2 44801   0.0195 352.4929 0001910  28.7929 255.7658  1.00269242  6130
JCSAT-18 (KACIFIC 1)    
1 44868U 19091A   26102.76255469 -.00000198  00000+0  00000+0 0  9992
2 44868   0.0301 330.5308 0000023 246.2780  48.6821  1.00271673 23351
ELEKTRO-L 3             
1 44903U 19095A   26103.17569420 -.00000093  00000+0  00000+0 0  9991
2 44903   0.0897  69.7854 0001300 313.6982 317.0913  1.00272311 23052
SHIJIAN-20 (SJ-20)      
1 44910U 19097A   26102.95651470  .00000138  00000+0  00000+0 0  9992
2 44910   4.7502  75.8411 0003394  20.9753 138.1034  1.00090604 23048
TJS-5                   
1 44978U 20002A   26103.03928029 -.00000340  00000+0  00000+0 0  9997
2 44978   0.1784 270.1609 0005963 126.2142 286.5294  1.00272080 23056
GSAT-30                 
1 45026U 20005A   26102.99975174 -.00000163  00000+0  00000+0 0  9995
2 45026   0.0162 223.1194 0002354 198.5275 222.4724  1.00273101 22856
EUTELSAT KONNECT        
1 45027U 20005B   26103.17961551  .00000053  00000+0  00000+0 0  9998
2 45027   0.0687  91.9604 0001609 213.6377 327.6746  1.00271284 23684
JCSAT-17                
1 45245U 20013A   26102.97358668 -.00000317  00000+0  00000+0 0  9999
2 45245   5.3943 356.2167 0004128  22.0652 309.3709  1.00271226 22576
GEO-KOMPSAT-2B          
1 45246U 20013B   26103.21433829 -.00000341  00000+0  00000+0 0  9998
2 45246   0.0311 344.2121 0000985   5.4999  57.1221  1.00270339 22628
BEIDOU-3 G2             
1 45344U 20017A   26103.03373360 -.00000135  00000+0  00000+0 0  9995
2 45344   2.7329  46.2664 0002904 346.8237 260.3285  1.00271427 22601
AEHF-6 (USA 298)        
1 45465U 20022B   26103.25198617 -.00000300  00000+0  00000+0 0  9993
2 45465   2.6946 300.3172 0046526  17.6679 111.8585  1.00276787 22368
BEIDOU-3 G3             
1 45807U 20040A   26103.25378120 -.00000348  00000+0  00000+0 0  9994
2 45807   2.2868  67.2345 0004715 333.8928   2.1167  1.00265550 21411
APSTAR-6D               
1 45863U 20045A   26102.97857858 -.00000315  00000+0  00000+0 0  9993
2 45863   0.0449  92.5471 0002157 355.0800 239.8653  1.00270674 21207
KOREASAT 116            
1 45920U 20048A   26103.23031022 -.00000359  00000+0  00000+0 0  9995
2 45920   0.0134 262.4197 0000970 116.4531  21.6730  1.00273974 20989
EXPRESS 103             
1 45985U 20053A   26103.03711362 -.00000278  00000+0  00000+0 0  9992
2 45985   0.0201 262.8800 0000177 105.2412 302.9840  1.00271175 20992
EXPRESS 80              
1 45986U 20053B   26102.22144821 -.00000143  00000+0  00000+0 0  9994
2 45986   0.0148 252.9167 0004597 206.7488 260.3861  1.00317215 20973
BSAT-4B                 
1 46112U 20056A   26103.23031022 -.00000347  00000+0  00000+0 0  9995
2 46112   0.0931 103.8573 0002890 347.9709 302.3300  1.00269452 20736
MEV-2                   
1 46113U 20056B   26102.87522102 -.00000008  00000+0  00000+0 0  9993
2 46113   0.0447  60.5361 0001997  20.6892  73.9361  1.00272381 79948
GALAXY 30 (G-30)        
1 46114U 20056C   26103.16919685  .00000000  00000+0  00000+0 0  9994
2 46114   0.0182 202.4016 0002186 188.0538 106.8209  1.00270800 20640
GAOFEN-13 01            
1 46610U 20071A   26103.25525454 -.00000359  00000+0  00000+0 0  9997
2 46610   0.3519  84.9869 0042410 121.8657 204.6839  1.00273649 20266
TIANTONG-1 2            
1 46916U 20082A   26103.04274698 -.00000354  00000+0  00000+0 0  9991
2 46916   0.8863 319.0186 0002544  63.9399 318.6264  1.00269500 20000
LUCAS (JDRS-1)          
1 47202U 20089A   26103.24350345 -.00000233  00000+0  00000+0 0  9999
2 47202   0.0261 272.0423 0002445 107.1734   0.6645  1.00273741 19763
SXM-7                   
1 47240U 20096A   26102.92982125 -.00000203  00000+0  00000+0 0  9997
2 47240   0.0250 119.8026 0004700   4.7349 326.1723  1.00271687  6788
CMS-01                  
1 47256U 20099A   26103.03442693 -.00000162  00000+0  00000+0 0  9995
2 47256   0.0302 114.3454 0005212 182.7011 359.5767  1.00272496 19545
TURKSAT 5A              
1 47306U 21001A   26103.21919653  .00000157  00000+0  00000+0 0  9993
2 47306   0.0179 163.3452 0000085 352.9123 154.9894  1.00271070 19313
TIANTONG-1 3            
1 47321U 21003A   26102.96284140 -.00000155  00000+0  00000+0 0  9998
2 47321   1.8142 335.3382 0003327  55.0158 238.9821  1.00272603 19308
TJS-6                   
1 47613U 21010A   26103.19597428  .00000046  00000+0  00000+0 0  9990
2 47613   0.4309  88.8500 0003300 312.9469  48.6543  1.00271169 19151
SBIRS GEO-5 (USA 315)   
1 48618U 21042A   26103.11294868 -.00000272  00000+0  00000+0 0  9997
2 48618   5.1879 328.6188 0001318  64.2800 302.8656  1.00271799 18126
FENGYUN 4B              
1 48808U 21047A   26103.03876029 -.00000328  00000+0  00000+0 0  9991
2 48808   0.0383 318.5789 0005367  54.7685 306.4597  1.00276485 17927
SXM-8                   
1 48838U 21049A   26102.92982125 -.00000203  00000+0  00000+0 0  9990
2 48838   0.0206  84.2827 0004698 316.2917  50.1481  1.00271026 17936
TIANLIAN 1-05           
1 49011U 21063A   26103.30656142  .00000113  00000+0  00000+0 0  9999
2 49011   1.4252  81.1785 0002998 255.9990 351.4980  1.00273856 17424
STAR ONE D2             
1 49055U 21069A   26103.21807437  .00000000  00000+0  00000+0 0  9993
2 49055   0.0199 175.7832 0000890 228.2324 165.7962  1.00267285 17293
EUTELSAT QUANTUM        
1 49056U 21069B   26102.99697587  .00000128  00000+0  00000+0 0  9992
2 49056   0.0282  49.2117 0002138 331.6557 226.9383  1.00273545 17273
ZHONGXING-2E            
1 49062U 21071A   26103.11294868 -.00000288  00000+0  00000+0 0  9990
2 49062   0.0484  45.7898 0002003  79.5687 214.6635  1.00270129 17385
TJS-7                   
1 49115U 21077A   26103.21226769 -.00000121  00000+0  00000+0 0  9997
2 49115   0.3392  86.7795 0002285 303.7127 147.8743  1.00271535  8906
CHINASAT 9B             
1 49125U 21080A   26103.11294868 -.00000310  00000+0  00000+0 0  9996
2 49125   0.0336  83.6771 0001334 281.7233 337.9856  1.00273699 16997
SHIJIAN-21 (SJ-21)      
1 49330U 21094A   26103.76484918 -.00000340  00000+0  00000+0 0  9990
2 49330   4.9603  61.5325 0047631 169.9111  13.8031  1.00268067  4712
SES-17                  
1 49332U 21095A   26103.19211414 -.00000269  00000+0  00000+0 0  9999
2 49332   0.0301  68.0405 0000977 315.1165 180.2928  1.00271134 17204
SYRACUSE 4A             
1 49333U 21095B   26102.99697587  .00000138  00000+0  00000+0 0  9990
2 49333   0.0204 247.9835 0001625 111.0500 246.5718  1.00271662 17297
QZS-1R (MICHIBIKI-1R)   
1 49336U 21096A   26102.26236459 -.00000188  00000+0  00000+0 0  9997
2 49336  37.3267  80.5548 0750491 270.5203  79.4629  1.00278146 16340
ZHONGXING-1D            
1 49505U 21114A   26103.25768122 -.00000333  00000+0  00000+0 0  9995
2 49505   0.0366 357.8334 0001646 219.5862 206.9652  1.00273670 16163
STPSAT-6                
1 49817U 21118A   26103.20975434 -.00000042  00000+0  00000+0 0  9993
2 49817   0.1520  84.4417 0002073 252.1751 188.4393  1.00272274 15920
LDPE-1                  
1 49818U 21118B   26102.16572552 -.00000121  00000+0  00000+0 0  9990
2 49818   5.5217  63.6183 0003357 183.8793  23.1843  0.98924974 15982
EXPRESS AMU-7           
1 50001U 21123A   26103.26062789 -.00000240  00000+0  00000+0 0  9992
2 50001   0.0132 251.7106 0000223 290.9024 257.6702  1.00271888 15885
EXPRESS AMU-3           
1 50002U 21123B   26102.15728216 -.00000320  00000+0  00000+0 0  9993
2 50002   0.0175 244.1754 0000824 350.1001 125.7165  1.00272464  6372
TIANLIAN 2-02           
1 50005U 21124A   26103.19450095 -.00000010  00000+0  00000+0 0  9995
2 50005   0.6318  87.1268 0003122 224.7556 130.5025  1.00272435 15962
TURKSAT 5B              
1 50212U 21126A   26103.21364414  .00000149  00000+0  00000+0 0  9991
2 50212   0.0757 338.7472 0004815   5.4956 336.0860  1.00273469 15646
INMARSAT 6-F1           
1 50319U 21128A   26103.03460028 -.00000169  00000+0  00000+0 0  9992
2 50319   0.0166 234.9861 0000305 279.2029 143.2547  1.00271790 15600
SHIYAN-12 01 (SY-12 01) 
1 50321U 21129A   26103.71646462 -.00000329  00000+0  00000+0 0  9997
2 50321   3.5072  80.7617 0003290 270.8913 219.8549  1.00070022 15852
SHIYAN-12 02 (SY-12 02) 
1 50322U 21129B   26103.66761796  .00000145  00000+0  00000+0 0  9995
2 50322   3.5072  80.7761 0000683  29.3400  11.9615  1.00466704 15855
TJS-9                   
1 50574U 21135A   26103.25906789 -.00000296  00000+0  00000+0 0  9997
2 50574   0.0476 284.3484 0004377 147.9724 359.6150  1.00269456 15770
GOES 18                 
1 51850U 22021A   26103.17475456  .00000099  00000+0  00000+0 0  9993
2 51850   0.0300  47.2158 0000675  42.6751  37.3873  1.00271794  5944
ZHONGXING-6D            
1 52255U 22038A   26102.09618571 -.00000352  00000+0  00000+0 0  9991
2 52255   0.0221 230.4798 0001595  98.8864  30.6241  1.00269947 14764
